ONEWEB-0555             
1 56057U 23043M   26071.00715343  .00000148  00000+0  35291-3 0  9999
2 56057  87.9006 248.0971 0001495  75.9572 284.1725 13.16593867146177
ONEWEB-0557             
1 56058U 23043N   26071.02139944  .00000034  00000+0  55414-4 0  9993
2 56058  87.9010 248.1057 0000497  53.9899 306.1278 13.16593712146175
ONEWEB-0558             
1 56059U 23043P   26071.09832537  .00000139  00000+0  30609-3 0  9993
2 56059  87.9163 263.3382 0002142  94.8624 265.2754 13.21826686145419
ONEWEB-0559             
1 56060U 23043Q   26071.23819160  .00000156  00000+0  34544-3 0  9999
2 56060  87.9164 263.3039 0001849 100.7244 259.4098 13.21824485145443
ONEWEB-0566             
1 56061U 23043R   26071.08022249  .00000071  00000+0  14008-3 0  9996
2 56061  87.9162 263.3345 0001939  97.5288 262.6066 13.21827062145404
ONEWEB-0568             
1 56062U 23043S   26071.03881473  .00000004  00000+0 -22143-4 0  9991
2 56062  87.9010 248.0924 0001532  85.7499 274.3807 13.16596941146195
ONEWEB-0574             
1 56063U 23043T   26071.22503970  .00000136  00000+0  29691-3 0  9995
2 56063  87.9173 263.2989 0001437  93.3674 266.7624 13.21826060145465
ONEWEB-0575             
1 56064U 23043U   26071.18447537 -.00000010  00000+0 -59871-4 0  9994
2 56064  87.9007 248.0610 0001198  90.7762 269.3507 13.16594072146208
ONEWEB-0576             
1 56065U 23043V   26071.01348635  .00000035  00000+0  58478-4 0  9993
2 56065  87.9010 248.0991 0001386  94.4763 265.6527 13.16593825146178
ONEWEB-0577             
1 56066U 23043W   26071.24780840  .00000108  00000+0  24862-3 0  9997
2 56066  87.9011 248.0505 0000883 109.2035 250.9192 13.16594218146238
ONEWEB-0578             
1 56067U 23043X   26071.06046547 -.00000047  00000+0 -14587-3 0  9994
2 56067  87.9165 263.3382 0001642  83.5772 276.5549 13.21823943145402
ONEWEB-0579             
1 56068U 23043Y   26071.27768932  .00000051  00000+0  92436-4 0  9990
2 56068  87.9173 263.2852 0001739 101.0364 259.0966 13.21827017145442
ONEWEB-0581             
1 56069U 23043Z   26071.02615286  .00000001  00000+0 -30969-4 0  9996
2 56069  87.9009 248.1067 0001057 104.0152 256.1097 13.16594448146179
ONEWEB-0609             
1 56070U 23043AA  26071.13460746 -.00000071  00000+0 -22302-3 0  9998
2 56070  87.8933 278.5945 0001716  89.0402 271.0925 13.15548241143677
ONEWEB-0613             
1 56071U 23043AB  26071.28197136 -.00000034  00000+0 -12387-3 0  9996
2 56071  87.8936 278.5761 0001793  96.6142 263.5192 13.15547888143697
ONEWEB-0630             
1 56072U 23043AC  26071.12510217 -.00000082  00000+0 -25189-3 0  9996
2 56072  87.8938 278.5771 0001734  97.4638 262.6689 13.15548600143666
ONEWEB-0632             
1 56073U 23043AD  26071.12034986  .00000004  00000+0 -22484-4 0  9990
2 56073  87.8939 278.5956 0001420  92.6992 267.4301 13.15548167143667
ONEWEB-0633             
1 56074U 23043AE  26071.11401102  .00000321  00000+0  81750-3 0  9999
2 56074  87.8947 278.5647 0001993  95.4802 264.6555 13.15546889143647
ONEWEB-0634             
1 56075U 23043AF  26071.09973902  .00001085  00000+0  28485-2 0  9992
2 56075  87.8936 278.6162 0001864  82.2254 277.9088 13.15555948143634
ONEWEB-0635             
1 56076U 23043AG  26071.09499270  .00000170  00000+0  41733-3 0  9990
2 56076  87.8943 278.5713 0001312  92.6317 267.4964 13.15548163143668
ONEWEB-0636             
1 56077U 23043AH  26071.08707055  .00000080  00000+0  17924-3 0  9998
2 56077  87.8938 278.5866 0001361  90.1992 269.9294 13.15547972143646
ONEWEB-0637             
1 56078U 23043AJ  26071.08073670  .00000049  00000+0  97308-4 0  9998
2 56078  87.8935 278.6056 0001433  78.7108 281.4183 13.15548699143662
ONEWEB-0647             
1 56079U 23043AK  26071.30415415 -.00000067  00000+0 -21318-3 0  9990
2 56079  87.8936 278.5733 0001554  94.4894 265.6414 13.15547603143683
ONEWEB-0651             
1 56080U 23043AL  26071.07122784 -.00000093  00000+0 -28178-3 0  9990
2 56080  87.8935 278.6148 0001356  84.6041 275.5244 13.15547642144854
ONEWEB-0718             
1 56081U 23043AM  26071.06647428 -.00000085  00000+0 -25950-3 0  9993
2 56081  87.8936 278.5963 0002020  79.6351 280.5007 13.15548306143666
ONEWEB-0561             
1 56710U 23068A   26071.15332133  .00000062  00000+0  12068-3 0  9992
2 56710  87.9160 293.8188 0001270  97.0792 263.0486 13.20770539136696
ONEWEB-0668             
1 56711U 23068B   26071.00082085  .00000104  00000+0  23774-3 0  9998
2 56711  87.9017 248.0941 0001741  77.8364 282.2962 13.16593861138994
ONEWEB-0676             
1 56712U 23068C   26071.23672717  .00000138  00000+0  32731-3 0  9991
2 56712  87.9005 248.0592 0001284  99.8879 260.2397 13.16594932138944
ONEWEB-0677             
1 56713U 23068D   26071.14228608  .00000913  00000+0  22148-2 0  9999
2 56713  87.9173 293.8124 0001543  81.0206 279.1102 13.20763254136991
ONEWEB-0678             
1 56714U 23068E   26071.11084159  .00000104  00000+0  24155-3 0  9991
2 56714  87.8944 278.5700 0001683 100.0352 260.0969 13.15547997136523
ONEWEB-0679             
1 56715U 23068F   26071.19556292  .00000018  00000+0  12296-4 0  9990
2 56715  87.9017 248.0535 0001302  76.3898 283.7378 13.16594297138964
ONEWEB-0680             
1 56716U 23068G   26071.28099022  .00000102  00000+0  21542-3 0  9991
2 56716  87.9175 263.2856 0001644  72.1015 288.0298 13.21827272138292
ONEWEB-0681             
1 56717U 23068H   26071.03332516  .00000023  00000+0  24306-4 0  9997
2 56717  87.9164 263.3435 0000692 112.9402 247.1805 13.21825808138259
ONEWEB-0682             
1 56718U 23068J   26071.28910281 -.00000217  00000+0 -60944-3 0  9990
2 56718  87.8935 278.5409 0001656  71.2590 288.8720 13.15547367136711
ONEWEB-0683             
1 56719U 23068K   26071.08232105  .00000073  00000+0  16040-3 0  9997
2 56719  87.8944 278.5751 0001699  79.5681 280.5640 13.15547975136659
ONEWEB-0684             
1 56720U 23068L   26071.09024642  .00000135  00000+0  32514-3 0  9998
2 56720  87.8944 278.5666 0002814 111.7950 248.3480 13.15547444136480
ONEWEB-0686             
1 56721U 23068M   26071.00398188  .00000139  00000+0  32923-3 0  9997
2 56721  87.8996 248.1299 0001941  90.2631 269.8723 13.16594372138922
ONEWEB-0694             
1 56722U 23068N   26071.23831466  .00000023  00000+0  27840-4 0  9999
2 56722  87.9014 248.0289 0001719  79.1698 280.9626 13.16593873139017
ONEWEB-0696             
1 56723U 23068P   26071.12350974 -.00000027  00000+0 -10522-3 0  9992
2 56723  87.8938 278.6044 0001799 102.6684 257.4647 13.15549623136602
ONEWEB-0703             
1 56724U 23068Q   26071.13302059 -.00000119  00000+0 -34936-3 0  9992
2 56724  87.8935 278.5835 0001693 125.1425 234.9864 13.15548072136498
ONEWEB-0721             
1 56725U 23068R   26071.22025986  .00000069  00000+0  13041-3 0  9990
2 56725  86.6754 116.4797 0001920  98.3670 261.7681 13.22462076145120
ONEWEB-0015             
1 61594U 24188A   26071.18367154 -.00000096  00000+0 -30553-3 0  9994
2 61594  87.8866  40.3805 0001377  68.9358 291.1917 13.11419495 71744
ONEWEB-0687             
1 61595U 24188B   26071.26029143  .00000100  00000+0  22373-3 0  9992
2 61595  87.9145  25.1314 0001892  63.2784 296.8542 13.17648224 73136
ONEWEB-0688             
1 61596U 24188C   26071.28897806 -.00000002  00000+0 -38057-4 0  9994
2 61596  87.9144  25.1248 0001035  41.2734 318.8476 13.17648492 73130
ONEWEB-0689             
1 61597U 24188D   26071.29389255  .00000518  00000+0  14249-2 0  9995
2 61597  87.8880  40.2991 0002059  74.4156 285.7199 13.11414990 71751
ONEWEB-0690             
1 61598U 24188E   26071.30406340  .00000051  00000+0  10922-3 0  9990
2 61598  87.8874  40.3170 0001795 105.6262 254.5064 13.11414310 71937
ONEWEB-0691             
1 61599U 24188F   26071.29898082  .00000229  00000+0  60941-3 0  9990
2 61599  87.8881  40.2184 0001540  72.0064 288.1232 13.11414125 71782
ONEWEB-0692             
1 61600U 24188G   26070.93783201 -.00000444  00000+0 -12894-2 0  9993
2 61600  87.8859  40.4223 0002769  84.6529 275.4914 13.11416046 71729
ONEWEB-0693             
1 61601U 24188H   26071.30078240  .00000049  00000+0  93192-4 0  9997
2 61601  87.9143  25.1439 0001551 107.3351 252.7950 13.17647927 73124
ONEWEB-0695             
1 61602U 24188J   26071.29558942  .00000443  00000+0  12131-2 0  9998
2 61602  87.8862  40.3422 0002347  75.6527 284.4862 13.11416099 71769
ONEWEB-0697             
1 61603U 24188K   26070.94631129 -.00000338  00000+0 -99004-3 0  9999
2 61603  87.8862  40.4014 0002644  85.7615 274.3815 13.11417839 71701
ONEWEB-0698             
1 61604U 24188L   26071.30575825  .00000014  00000+0  22942-5 0  9999
2 61604  87.8860  40.3450 0002702 103.9774 256.1655 13.11414967 71773
ONEWEB-0699             
1 61605U 24188M   26071.24150532  .00000687  00000+0  19305-2 0  9999
2 61605  87.8785  55.5645 0002512  89.6194 270.5221 13.10374802 70612
ONEWEB-0700             
1 61606U 24188N   26071.01409325  .00000710  00000+0  19968-2 0  9994
2 61606  87.8797  55.5045 0002530  79.9566 280.1847 13.10373388 70579
ONEWEB-0701             
1 61607U 24188P   26070.95433049  .00000393  00000+0  10885-2 0  9993
2 61607  87.8779  55.6214 0002685  89.8573 270.2862 13.10369691 70577
ONEWEB-0702             
1 61608U 24188Q   26071.27523090  .00000441  00000+0  12077-2 0  9995
2 61608  87.8884  40.2395 0002864  80.3114 279.8338 13.11418865 71787
ONEWEB-0704             
1 61609U 24188R   26070.94271734  .00000652  00000+0  18321-2 0  9996
2 61609  87.8796  55.6004 0002820  80.2976 279.8470 13.10374101 70558
ONEWEB-0705             
1 61610U 24188S   26070.94769701  .00000602  00000+0  16879-2 0  9995
2 61610  87.8784  55.6121 0002442  59.0594 301.0773 13.10371468 62724
ONEWEB-0706             
1 61611U 24188T   26071.00911053  .00000402  00000+0  11149-2 0  9996
2 61611  87.8769  55.6123 0002360  76.4350 283.7040 13.10375175 70655
